{"data":{"allPrimaryCareDoctors":[{"name":"Ms. Pat Luettgen","locations":[{"street":"543 Reynolds Shores","city":"South Walker","zipCode":"55248","state":"NJ"},{"street":"4601 Kristi Course","city":"West Domenic","zipCode":"14067","state":"KY"}],"emailAddress":"Pfannerstill@mail.com"},{"name":"Carina Bosco","locations":[{"street":"83175 Maggio Plains","city":"West Casiestad","zipCode":"36663","state":"MN"},{"street":"839 Considine Stravenue","city":"Beermouth","zipCode":"14616","state":"AK"}],"emailAddress":"Williamson@mail.com"},{"name":"Milagro Stroman","locations":[{"street":"99993 Hammes Lights","city":"South Dick","zipCode":"31195","state":"LA"}],"emailAddress":"Klocko@mail.com"},{"name":"Isreal Predovic","locations":[{"street":"31233 Rutherford Inlet","city":"Roobhaven","zipCode":"65548","state":"LA"}],"emailAddress":"Pacocha@mail.com"},{"name":"Luciano Jones","locations":[{"street":"4921 Veum Mall","city":"Hillborough","zipCode":"34681","state":"ME"},{"street":"68671 Lonnie Station","city":"Luismouth","zipCode":"51424","state":"FL"}],"emailAddress":"Mraz@mail.com"}]}}